COSMOS 2251 DEB         
1 35716U 93036AQM 17345.41117163  .00000075  00000-0  22519-4 0  9992
2 35716  73.9957   6.9405 0094264 195.1932 225.9263 14.56961105450302
